start=new Date('2023-05-30T00:00:00.000Z').valueOf();
sats=[{"REF_FRAME":"TEME","PERIOD":"95.593","SITE":"AFETR","TIME_SYSTEM":"UTC","MEAN_ELEMENT_THEORY":"SGP4","RCS_SIZE":"LARGE","OBJECT_ID":"2021-005BJ","DECAY_DATE":null,"RA_OF_ASC_NODE":"298.1023","CLASSIFICATION_TYPE":"U","CENTER_NAME":"EARTH","NORAD_CAT_ID":"47405","ELEMENT_SET_NO":"999","PERIAPSIS":"546.563","MEAN_ANOMALY":"285.2845","TLE_LINE1":"1 47405U 21005BJ  23149.69542170  .00001094  00000-0  92364-4 0  9993","COUNTRY_CODE":"US","GP_ID":"232777336","MEAN_MOTION":"15.06392287","EPOCH":"2023-05-29T16:41:24.434880","SEMIMAJOR_AXIS":"6925.372","ARG_OF_PERICENTER":"74.8252","ECCENTRICITY":"0.00009740","BSTAR":"0.00009236400000","OBJECT_TYPE":"PAYLOAD","INCLINATION":"53.0542","FILE":"3920354","LAUNCH_DATE":"2021-01-20","EPHEMERIS_TYPE":"0","REV_AT_EPOCH":"13005","APOAPSIS":"547.912","MEAN_MOTION_DDOT":"0.0000000000000","MEAN_MOTION_DOT":"0.00001094","TLE_LINE2":"2 47405  53.0542 298.1023 0000974  74.8252 285.2845 15.06392287130050","OBJECT_NAME":"STARLINK-2130"},{"DECAY_DATE":null,"OBJECT_ID":"2021-005BK","RA_OF_ASC_NODE":"267.9773","CLASSIFICATION_TYPE":"U","CENTER_NAME":"EARTH","PERIOD":"95.593","REF_FRAME":"TEME","TIME_SYSTEM":"UTC","MEAN_ELEMENT_THEORY":"SGP4","SITE":"AFETR","RCS_SIZE":"LARGE","COUNTRY_CODE":"US","TLE_LINE1":"1 47406U 21005BK  23149.72399020  .00002375  00000-0  17833-3 0  9992","NORAD_CAT_ID":"47406","ELEMENT_SET_NO":"999","PERIAPSIS":"546.567","MEAN_ANOMALY":"251.3256","ECCENTRICITY":"0.00009850","BSTAR":"0.00017833000000","MEAN_MOTION":"15.06388487","GP_ID":"232776595","EPOCH":"2023-05-29T17:22:32.753280","ARG_OF_PERICENTER":"108.7840","SEMIMAJOR_AXIS":"6925.384","REV_AT_EPOCH":"13048","APOAPSIS":"547.931","MEAN_MOTION_DDOT":"0.0000000000000","TLE_LINE2":"2 47406  53.0539 267.9773 0000985 108.7840 251.3256 15.06388487130489","MEAN_MOTION_DOT":"0.00002375","OBJECT_NAME":"STARLINK-2133","INCLINATION":"53.0539","OBJECT_TYPE":"PAYLOAD","FILE":"3920354","EPHEMERIS_TYPE":"0","LAUNCH_DATE":"2021-01-20"},{"RA_OF_ASC_NODE":"267.9424","CENTER_NAME":"EARTH","CLASSIFICATION_TYPE":"U","OBJECT_ID":"2021-005BL","DECAY_DATE":null,"RCS_SIZE":"LARGE","REF_FRAME":"TEME","PERIOD":"95.593","SITE":"AFETR","MEAN_ELEMENT_THEORY":"SGP4","TIME_SYSTEM":"UTC","COUNTRY_CODE":"US","TLE_LINE1":"1 47407U 21005BL  23149.73136084  .00006107  00000-0  42862-3 0  9990","PERIAPSIS":"546.600","MEAN_ANOMALY":"287.1459","NORAD_CAT_ID":"47407","ELEMENT_SET_NO":"999","ECCENTRICITY":"0.00009210","BSTAR":"0.00042862000000","EPOCH":"2023-05-29T17:33:09.576576","SEMIMAJOR_AXIS":"6925.373","ARG_OF_PERICENTER":"72.9631","GP_ID":"232776346","MEAN_MOTION":"15.06392037","OBJECT_NAME":"STARLINK-2134","APOAPSIS":"547.876","MEAN_MOTION_DDOT":"0.0000000000000","REV_AT_EPOCH":"13048","MEAN_MOTION_DOT":"0.00006107","TLE_LINE2":"2 47407  53.0535 267.9424 0000921  72.9631 287.1459 15.06392037130487","FILE":"3920354","LAUNCH_DATE":"2021-01-20","EPHEMERIS_TYPE":"0","INCLINATION":"53.0535","OBJECT_TYPE":"PAYLOAD"},{"ECCENTRICITY":"0.00009690","BSTAR":"0.00023421000000","EPOCH":"2023-05-29T18:26:14.959680","SEMIMAJOR_AXIS":"6925.388","ARG_OF_PERICENTER":"105.9833","MEAN_MOTION":"15.06387123","GP_ID":"232777597","OBJECT_NAME":"STARLINK-2135","MEAN_MOTION_DDOT":"0.0000000000000","APOAPSIS":"547.924","REV_AT_EPOCH":"13049","TLE_LINE2":"2 47408  53.0544 267.7770 0000969 105.9833 254.1263 15.06387123130491","MEAN_MOTION_DOT":"0.00003208","FILE":"3920354","EPHEMERIS_TYPE":"0","LAUNCH_DATE":"2021-01-20","OBJECT_TYPE":"PAYLOAD","INCLINATION":"53.0544","RA_OF_ASC_NODE":"267.7770","CLASSIFICATION_TYPE":"U","CENTER_NAME":"EARTH","DECAY_DATE":null,"OBJECT_ID":"2021-005BM","RCS_SIZE":"LARGE","PERIOD":"95.593","REF_FRAME":"TEME","TIME_SYSTEM":"UTC","MEAN_ELEMENT_THEORY":"SGP4","SITE":"AFETR","TLE_LINE1":"1 47408U 21005BM  23149.76822870  .00003208  00000-0  23421-3 0  9998","COUNTRY_CODE":"US","PERIAPSIS":"546.582","MEAN_ANOMALY":"254.1263","NORAD_CAT_ID":"47408","ELEMENT_SET_NO":"999"},{"BSTAR":"0.00002284200000","ECCENTRICITY":"0.00008690","GP_ID":"232743730","MEAN_MOTION":"15.06387665","ARG_OF_PERICENTER":"91.7190","SEMIMAJOR_AXIS":"6925.386","EPOCH":"2023-05-29T12:12:02.489760","MEAN_MOTION_DOT":"0.00000059","TLE_LINE2":"2 47548  53.0536 248.9444 0000869  91.7190 268.3898 15.06387665127929","MEAN_MOTION_DDOT":"0.0000000000000","APOAPSIS":"547.853","REV_AT_EPOCH":"12792","OBJECT_NAME":"STARLINK-1782","INCLINATION":"53.0536","OBJECT_TYPE":"PAYLOAD","LAUNCH_DATE":"2021-02-04","EPHEMERIS_TYPE":"0","FILE":"3920065","OBJECT_ID":"2021-009A","DECAY_DATE":null,"CLASSIFICATION_TYPE":"U","CENTER_NAME":"EARTH","RA_OF_ASC_NODE":"248.9444","SITE":"AFETR","TIME_SYSTEM":"UTC","MEAN_ELEMENT_THEORY":"SGP4","REF_FRAME":"TEME","PERIOD":"95.593","RCS_SIZE":"LARGE","COUNTRY_CODE":"US","TLE_LINE1":"1 47548U 21009A   23149.50836215  .00000059  00000-0  22842-4 0  9995","ELEMENT_SET_NO":"999","NORAD_CAT_ID":"47548","MEAN_ANOMALY":"268.3898","PERIAPSIS":"546.650"},{"ECCENTRICITY":"0.00010210","BSTAR":"0.00044224000000","EPOCH":"2023-05-29T16:53:21.250752","SEMIMAJOR_AXIS":"6925.371","ARG_OF_PERICENTER":"105.1209","MEAN_MOTION":"15.06392805","GP_ID":"232777360","OBJECT_NAME":"STARLINK-1806","APOAPSIS":"547.943","REV_AT_EPOCH":"12795","MEAN_MOTION_DDOT":"0.0000000000000","TLE_LINE2":"2 47549  53.0534 248.0685 0001021 105.1209 254.9893 15.06392805127959","MEAN_MOTION_DOT":"0.00006311","FILE":"3920354","EPHEMERIS_TYPE":"0","LAUNCH_DATE":"2021-02-04","INCLINATION":"53.0534","OBJECT_TYPE":"PAYLOAD","RA_OF_ASC_NODE":"248.0685","CENTER_NAME":"EARTH","CLASSIFICATION_TYPE":"U","DECAY_DATE":null,"OBJECT_ID":"2021-009B","RCS_SIZE":"LARGE","PERIOD":"95.593","REF_FRAME":"TEME","TIME_SYSTEM":"UTC","MEAN_ELEMENT_THEORY":"SGP4","SITE":"AFETR","TLE_LINE1":"1 47549U 21009B   23149.70371818  .00006311  00000-0  44224-3 0  9995","COUNTRY_CODE":"US","PERIAPSIS":"546.529","MEAN_ANOMALY":"254.9893","NORAD_CAT_ID":"47549","ELEMENT_SET_NO":"999"},{"OBJECT_ID":"2021-009C","DECAY_DATE":null,"RA_OF_ASC_NODE":"238.9089","CLASSIFICATION_TYPE":"U","CENTER_NAME":"EARTH","REF_FRAME":"TEME","PERIOD":"95.593","SITE":"AFETR","TIME_SYSTEM":"UTC","MEAN_ELEMENT_THEORY":"SGP4","RCS_SIZE":"LARGE","TLE_LINE1":"1 47550U 21009C   23149.51665298 -.00000073  00000-0  13990-4 0  9991","COUNTRY_CODE":"US","NORAD_CAT_ID":"47550","ELEMENT_SET_NO":"999","PERIAPSIS":"546.626","MEAN_ANOMALY":"279.5068","BSTAR":"0.00001399000000","ECCENTRICITY":"0.00008980","GP_ID":"232744731","MEAN_MOTION":"15.06388902","EPOCH":"2023-05-29T12:23:58.817472","ARG_OF_PERICENTER":"80.6023","SEMIMAJOR_AXIS":"6925.383","APOAPSIS":"547.869","MEAN_MOTION_DDOT":"0.0000000000000","REV_AT_EPOCH":"12806","MEAN_MOTION_DOT":"-0.00000073","TLE_LINE2":"2 47550  53.0533 238.9089 0000898  80.6023 279.5068 15.06388902128061","OBJECT_NAME":"STARLINK-1909","OBJECT_TYPE":"PAYLOAD","INCLINATION":"53.0533","FILE":"3920065","LAUNCH_DATE":"2021-02-04","EPHEMERIS_TYPE":"0"},{"ARG_OF_PERICENTER":"110.3592","SEMIMAJOR_AXIS":"6925.378","EPOCH":"2023-05-29T12:16:01.189632","MEAN_MOTION":"15.06390350","GP_ID":"232742980","ECCENTRICITY":"0.00008250","BSTAR":"-0.00010429000000","EPHEMERIS_TYPE":"0","LAUNCH_DATE":"2021-02-04","FILE":"3920065","INCLINATION":"53.0544","OBJECT_TYPE":"PAYLOAD","OBJECT_NAME":"STARLINK-1938","TLE_LINE2":"2 47551  53.0544 258.9291 0000825 110.3592 249.7486 15.06390350127784","MEAN_MOTION_DOT":"-0.00001834","APOAPSIS":"547.814","REV_AT_EPOCH":"12778","MEAN_MOTION_DDOT":"0.0000000000000","RCS_SIZE":"LARGE","MEAN_ELEMENT_THEORY":"SGP4","TIME_SYSTEM":"UTC","SITE":"AFETR","PERIOD":"95.593","REF_FRAME":"TEME","CLASSIFICATION_TYPE":"U","CENTER_NAME":"EARTH","RA_OF_ASC_NODE":"258.9291","DECAY_DATE":null,"OBJECT_ID":"2021-009D","MEAN_ANOMALY":"249.7486","PERIAPSIS":"546.672","ELEMENT_SET_NO":"999","NORAD_CAT_ID":"47551","COUNTRY_CODE":"US","TLE_LINE1":"1 47551U 21009D   23149.51112488 -.00001834  00000-0 -10429-3 0  9990"},{"MEAN_ELEMENT_THEORY":"SGP4","TIME_SYSTEM":"UTC","SITE":"AFETR","PERIOD":"95.593","REF_FRAME":"TEME","RCS_SIZE":"LARGE","DECAY_DATE":null,"OBJECT_ID":"2021-009E","CENTER_NAME":"EARTH","CLASSIFICATION_TYPE":"U","RA_OF_ASC_NODE":"248.6137","ELEMENT_SET_NO":"999","NORAD_CAT_ID":"47552","MEAN_ANOMALY":"275.2999","PERIAPSIS":"546.603","COUNTRY_CODE":"US","TLE_LINE1":"1 47552U 21009E   23149.58208319 -.00000243  00000-0  25788-5 0  9995","MEAN_MOTION":"15.06383110","GP_ID":"232743230","SEMIMAJOR_AXIS":"6925.400","ARG_OF_PERICENTER":"84.8099","EPOCH":"2023-05-29T13:58:11.987616","ECCENTRICITY":"0.00009560","BSTAR":"0.00000257880000","INCLINATION":"53.0536","OBJECT_TYPE":"PAYLOAD","EPHEMERIS_TYPE":"0","LAUNCH_DATE":"2021-02-04","FILE":"3920065","TLE_LINE2":"2 47552  53.0536 248.6137 0000956  84.8099 275.2999 15.06383110127939","MEAN_MOTION_DOT":"-0.00000243","APOAPSIS":"547.927","REV_AT_EPOCH":"12793","MEAN_MOTION_DDOT":"0.0000000000000","OBJECT_NAME":"STARLINK-1940"},{"OBJECT_TYPE":"PAYLOAD","INCLINATION":"53.0533","LAUNCH_DATE":"2021-02-04","EPHEMERIS_TYPE":"0","FILE":"3920354","MEAN_MOTION_DOT":"0.00002234","TLE_LINE2":"2 47554  53.0533 267.9953 0000987 103.1290 256.9809 15.06384949127678","APOAPSIS":"547.943","REV_AT_EPOCH":"12767","MEAN_MOTION_DDOT":"0.0000000000000","OBJECT_NAME":"STARLINK-1953","GP_ID":"232776861","MEAN_MOTION":"15.06384949","ARG_OF_PERICENTER":"103.1290","SEMIMAJOR_AXIS":"6925.395","EPOCH":"2023-05-29T17:17:14.426304","ECCENTRICITY":"0.00009870","BSTAR":"0.00016890000000","ELEMENT_SET_NO":"999","NORAD_CAT_ID":"47554","MEAN_ANOMALY":"256.9809","PERIAPSIS":"546.576","COUNTRY_CODE":"US","TLE_LINE1":"1 47554U 21009G   23149.72030586  .00002234  00000-0  16890-3 0  9995","SITE":"AFETR","TIME_SYSTEM":"UTC","MEAN_ELEMENT_THEORY":"SGP4","REF_FRAME":"TEME","PERIOD":"95.593","RCS_SIZE":"LARGE","OBJECT_ID":"2021-009G","DECAY_DATE":null,"CLASSIFICATION_TYPE":"U","CENTER_NAME":"EARTH","RA_OF_ASC_NODE":"267.9953"}];
